{
  "norad_id": 59667,
  "name": "STARLINK-31913",
  "history": [
    {
      "epoch": "2026-03-28T21:38:15.865728Z",
      "apogee_km": 483.8329815544803,
      "perigee_km": 482.25490993695803,
      "latitude_deg": 1.0565012013137343e-05,
      "longitude_deg": 138.7614377145955,
      "height_km": 482.8044557191648,
      "semi_major_axis_km": 6861.180945745718,
      "eccentricity": 0.000115,
      "inclination_deg": 43.0004,
      "raan_deg": 289.6429,
      "arg_perigee_deg": 271.1638,
      "mean_anomaly_deg": 88.9082,
      "mean_motion_rev_day": 15.2758172
    },
    {
      "epoch": "2026-03-28T21:38:15.866592Z",
      "apogee_km": 483.8327757190518,
      "perigee_km": 482.2551157723856,
      "latitude_deg": 8.20682601813022e-06,
      "longitude_deg": 138.7614315899013,
      "height_km": 482.8044598990487,
      "semi_major_axis_km": 6861.180945745718,
      "eccentricity": 0.00011497,
      "inclination_deg": 43.0004,
      "raan_deg": 289.6429,
      "arg_perigee_deg": 271.1638,
      "mean_anomaly_deg": 88.9082,
      "mean_motion_rev_day": 15.2758172
    },
    {
      "epoch": "2026-03-30T12:52:10.609824Z",
      "apogee_km": 483.9221493117748,
      "perigee_km": 482.20533966148923,
      "latitude_deg": 4.097350015438789e-05,
      "longitude_deg": -100.55902495544113,
      "height_km": 482.7983910829816,
      "semi_major_axis_km": 6861.200744486632,
      "eccentricity": 0.00012511,
      "inclination_deg": 43.0007,
      "raan_deg": 280.4117,
      "arg_perigee_deg": 272.8051,
      "mean_anomaly_deg": 87.2658,
      "mean_motion_rev_day": 15.27575108
    },
    {
      "epoch": "2026-03-30T20:42:58.030560Z",
      "apogee_km": 483.8626512152796,
      "perigee_km": 482.27277285940636,
      "latitude_deg": 2.3334264746690278e-06,
      "longitude_deg": 139.5746032747287,
      "height_km": 482.81209115488747,
      "semi_major_axis_km": 6861.204712037343,
      "eccentricity": 0.00011586,
      "inclination_deg": 43.0022,
      "raan_deg": 278.5652,
      "arg_perigee_deg": 272.3336,
      "mean_anomaly_deg": 87.7383,
      "mean_motion_rev_day": 15.27573783
    },
    {
      "epoch": "2026-03-31T18:41:08.763360Z",
      "apogee_km": 483.81645215709887,
      "perigee_km": 482.2822908844273,
      "latitude_deg": -3.5744696158113424e-05,
      "longitude_deg": 163.95828253744224,
      "height_km": 482.8349324781149,
      "semi_major_axis_km": 6861.186371520763,
      "eccentricity": 0.0001118,
      "inclination_deg": 43.0018,
      "raan_deg": 273.3959,
      "arg_perigee_deg": 269.3356,
      "mean_anomaly_deg": 90.7367,
      "mean_motion_rev_day": 15.27579908
    },
    {
      "epoch": "2026-04-01T11:56:52.708128Z",
      "apogee_km": 483.9426653762248,
      "perigee_km": 482.1930581364768,
      "latitude_deg": 4.421713246492284e-05,
      "longitude_deg": -99.74636811419937,
      "height_km": 482.93718361770834,
      "semi_major_axis_km": 6861.2048617563505,
      "eccentricity": 0.0001275,
      "inclination_deg": 43.0018,
      "raan_deg": 269.3332,
      "arg_perigee_deg": 263.9272,
      "mean_anomaly_deg": 96.1435,
      "mean_motion_rev_day": 15.27573733
    },
    {
      "epoch": "2026-04-02T19:19:59.717856Z",
      "apogee_km": 483.46093437880427,
      "perigee_km": 482.59505535645167,
      "latitude_deg": -2.3774710673577573e-05,
      "longitude_deg": 140.79900569222883,
      "height_km": 483.06788369477255,
      "semi_major_axis_km": 6861.164994867628,
      "eccentricity": 6.31e-05,
      "inclination_deg": 42.9998,
      "raan_deg": 261.9468,
      "arg_perigee_deg": 232.4185,
      "mean_anomaly_deg": 127.6609,
      "mean_motion_rev_day": 15.27587047
    },
    {
      "epoch": "2026-04-02T19:19:59.718720Z",
      "apogee_km": 483.46059132055507,
      "perigee_km": 482.5953984147018,
      "latitude_deg": -2.6886844863549594e-05,
      "longitude_deg": 140.79899876343262,
      "height_km": 483.0676744964039,
      "semi_major_axis_km": 6861.164994867628,
      "eccentricity": 6.305e-05,
      "inclination_deg": 42.9998,
      "raan_deg": 261.9468,
      "arg_perigee_deg": 232.4185,
      "mean_anomaly_deg": 127.6609,
      "mean_motion_rev_day": 15.27587047
    },
    {
      "epoch": "2026-04-03T18:52:22.120896Z",
      "apogee_km": 483.9314262705948,
      "perigee_km": 482.2449371209341,
      "latitude_deg": 4.917296978976885e-06,
      "longitude_deg": 141.20225513707865,
      "height_km": 483.04079096056995,
      "semi_major_axis_km": 6861.225181695764,
      "eccentricity": 0.0001229,
      "inclination_deg": 43.0026,
      "raan_deg": 256.4101,
      "arg_perigee_deg": 257.9661,
      "mean_anomaly_deg": 102.1053,
      "mean_motion_rev_day": 15.27566947
    },
    {
      "epoch": "2026-04-04T19:58:50.369088Z",
      "apogee_km": 483.824392503353,
      "perigee_km": 482.1859517526482,
      "latitude_deg": -2.9609496863456978e-05,
      "longitude_deg": 117.64287408653193,
      "height_km": 483.14938688569714,
      "semi_major_axis_km": 6861.142172128,
      "eccentricity": 0.0001194,
      "inclination_deg": 43.0017,
      "raan_deg": 250.4996,
      "arg_perigee_deg": 243.334,
      "mean_anomaly_deg": 116.7389,
      "mean_motion_rev_day": 15.27594669
    },
    {
      "epoch": "2026-04-05T10:06:17.286624Z",
      "apogee_km": 483.776692570068,
      "perigee_km": 482.4655061472804,
      "latitude_deg": 5.726028989982488e-05,
      "longitude_deg": -98.12194856268911,
      "height_km": 483.1710946408039,
      "semi_major_axis_km": 6861.258099358674,
      "eccentricity": 9.555e-05,
      "inclination_deg": 43.0014,
      "raan_deg": 247.1769,
      "arg_perigee_deg": 245.3299,
      "mean_anomaly_deg": 114.7454,
      "mean_motion_rev_day": 15.27555954
    },
    {
      "epoch": "2026-04-05T19:31:13.668960Z",
      "apogee_km": 484.01926427707076,
      "perigee_km": 482.1996617150844,
      "latitude_deg": 1.1976059927468145e-05,
      "longitude_deg": 118.04088855538758,
      "height_km": 483.12010211111647,
      "semi_major_axis_km": 6861.246462996078,
      "eccentricity": 0.0001326,
      "inclination_deg": 43.0023,
      "raan_deg": 244.9614,
      "arg_perigee_deg": 255.1083,
      "mean_anomaly_deg": 104.9622,
      "mean_motion_rev_day": 15.2755984
    },
    {
      "epoch": "2026-04-05T19:31:13.669824Z",
      "apogee_km": 484.01926427707076,
      "perigee_km": 482.1996617150844,
      "latitude_deg": 1.1964171984549753e-05,
      "longitude_deg": 118.04088493287269,
      "height_km": 483.12010211238766,
      "semi_major_axis_km": 6861.246462996078,
      "eccentricity": 0.0001326,
      "inclination_deg": 43.0023,
      "raan_deg": 244.9614,
      "arg_perigee_deg": 255.1083,
      "mean_anomaly_deg": 104.9622,
      "mean_motion_rev_day": 15.2755984
    },
    {
      "epoch": "2026-04-07T10:45:06.869952Z",
      "apogee_km": 483.7705399527349,
      "perigee_km": 482.33339531157344,
      "latitude_deg": -5.252766316169329e-05,
      "longitude_deg": -121.27393334212773,
      "height_km": 483.1547204260259,
      "semi_major_axis_km": 6861.188967632153,
      "eccentricity": 0.00010473,
      "inclination_deg": 43.0021,
      "raan_deg": 235.7295,
      "arg_perigee_deg": 242.997,
      "mean_anomaly_deg": 117.0774,
      "mean_motion_rev_day": 15.27579041
    },
    {
      "epoch": "2026-04-07T17:01:44.056416Z",
      "apogee_km": 483.84372086114035,
      "perigee_km": 482.2395772929858,
      "latitude_deg": -9.512115055529536e-06,
      "longitude_deg": 142.83518108571323,
      "height_km": 483.3476992311014,
      "semi_major_axis_km": 6861.178649077063,
      "eccentricity": 0.0001169,
      "inclination_deg": 43.002,
      "raan_deg": 234.2513,
      "arg_perigee_deg": 228.6732,
      "mean_anomaly_deg": 131.4019,
      "mean_motion_rev_day": 15.27582487
    },
    {
      "epoch": "2026-04-08T10:17:28.229280Z",
      "apogee_km": 483.737636836574,
      "perigee_km": 482.36978985596215,
      "latitude_deg": 5.089562378139552e-06,
      "longitude_deg": -120.86959536709851,
      "height_km": 483.2205392523234,
      "semi_major_axis_km": 6861.190713346268,
      "eccentricity": 9.968e-05,
      "inclination_deg": 43.002,
      "raan_deg": 230.1895,
      "arg_perigee_deg": 235.186,
      "mean_anomaly_deg": 124.8898,
      "mean_motion_rev_day": 15.27578458
    },
    {
      "epoch": "2026-04-09T16:06:25.464384Z",
      "apogee_km": 483.8280383923784,
      "perigee_km": 482.2134707495734,
      "latitude_deg": 1.8929543478510284e-05,
      "longitude_deg": 143.6524406283658,
      "height_km": 483.0851708477059,
      "semi_major_axis_km": 6861.157754570976,
      "eccentricity": 0.00011766,
      "inclination_deg": 43.0027,
      "raan_deg": 223.1745,
      "arg_perigee_deg": 249.121,
      "mean_anomaly_deg": 110.9516,
      "mean_motion_rev_day": 15.27589465
    },
    {
      "epoch": "2026-04-11T16:45:17.864352Z",
      "apogee_km": 483.93943609084545,
      "perigee_km": 482.2323638333337,
      "latitude_deg": 1.561934067134235e-05,
      "longitude_deg": 120.48850166467989,
      "height_km": 483.1857797352366,
      "semi_major_axis_km": 6861.222899962089,
      "eccentricity": 0.0001244,
      "inclination_deg": 43.0046,
      "raan_deg": 211.7268,
      "arg_perigee_deg": 247.7695,
      "mean_anomaly_deg": 112.3025,
      "mean_motion_rev_day": 15.27567709
    },
    {
      "epoch": "2026-04-13T00:08:24.699552Z",
      "apogee_km": 483.37717146663,
      "perigee_km": 482.75417426393324,
      "latitude_deg": -6.430734793704341e-06,
      "longitude_deg": 1.0367514989714124,
      "height_km": 482.9919569669914,
      "semi_major_axis_km": 6861.202672865281,
      "eccentricity": 4.54e-05,
      "inclination_deg": 43.0033,
      "raan_deg": 204.3425,
      "arg_perigee_deg": 241.1858,
      "mean_anomaly_deg": 118.8948,
      "mean_motion_rev_day": 15.27574464
    },
    {
      "epoch": "2026-04-14T13:48:09.992160Z",
      "apogee_km": 483.8668412840125,
      "perigee_km": 482.2325066182766,
      "latitude_deg": 1.7000262136552072e-05,
      "longitude_deg": 145.68761148566912,
      "height_km": 483.1809389227813,
      "semi_major_axis_km": 6861.186673951144,
      "eccentricity": 0.0001191,
      "inclination_deg": 43.0032,
      "raan_deg": 195.4788,
      "arg_perigee_deg": 244.2872,
      "mean_anomaly_deg": 115.7857,
      "mean_motion_rev_day": 15.27579807
    },
    {
      "epoch": "2026-04-15T13:20:30.319008Z",
      "apogee_km": 483.9403507459929,
      "perigee_km": 482.1509543102138,
      "latitude_deg": -2.2110957526360787e-06,
      "longitude_deg": 146.0990860091834,
      "height_km": 482.9605558409716,
      "semi_major_axis_km": 6861.182652528103,
      "eccentricity": 0.0001304,
      "inclination_deg": 43.0031,
      "raan_deg": 189.9417,
      "arg_perigee_deg": 261.1292,
      "mean_anomaly_deg": 98.9412,
      "mean_motion_rev_day": 15.2758115
    },
    {
      "epoch": "2026-04-16T14:27:00.785952Z",
      "apogee_km": 483.70798485876185,
      "perigee_km": 482.16835959011405,
      "latitude_deg": 9.441312545434354e-06,
      "longitude_deg": 122.53278692590821,
      "height_km": 482.58651915983705,
      "semi_major_axis_km": 6861.075172224438,
      "eccentricity": 0.0001122,
      "inclination_deg": 43.003,
      "raan_deg": 184.0335,
      "arg_perigee_deg": 279.6055,
      "mean_anomaly_deg": 80.467,
      "mean_motion_rev_day": 15.27617045
    },
    {
      "epoch": "2026-04-17T21:50:08.437632Z",
      "apogee_km": 484.883899451449,
      "perigee_km": 481.2469132798833,
      "latitude_deg": 3.1120251475317004e-05,
      "longitude_deg": 3.073674850661421,
      "height_km": 483.1188394737618,
      "semi_major_axis_km": 6861.202406365666,
      "eccentricity": 0.00026504,
      "inclination_deg": 43.0078,
      "raan_deg": 176.6452,
      "arg_perigee_deg": 261.3023,
      "mean_anomaly_deg": 98.7529,
      "mean_motion_rev_day": 15.27574553
    }
  ]
}